{
  "type": "FeatureCollection",
  "features": [
    {
      "type": "Feature",
      "properties": {
        "norad_id": 37928,
        "name": "FENGYUN 1C DEB",
        "group": "fengyun-1c-debris",
        "lat": 59.1601555119353,
        "lon": 63.533157764598634,
        "alt_km": 776.4176252700754,
        "timestamp": "2025-12-19T10:50:01.490415+00:00",
        "meta_object_name": "FENGYUN 1C DEB",
        "meta_object_id": "1999-025EPD",
        "meta_epoch": "2025-12-15T09:22:08.363712",
        "meta_mean_motion": 14.37112428,
        "meta_eccentricity": 0.00730461,
        "meta_inclination": 98.9158,
        "meta_ra_of_asc_node": 224.0834,
        "meta_arg_of_pericenter": 25.3937,
        "meta_mean_anomaly": 335.0809,
        "meta_ephemeris_type": 0,
        "meta_classification_type": "U",
        "meta_norad_cat_id": 37928,
        "meta_element_set_no": 999,
        "meta_rev_at_epoch": 81230,
        "meta_bstar": 0.00052318414,
        "meta_mean_motion_dot": 1.555e-05,
        "meta_mean_motion_ddot": 0,
        "tle_line1": "1 37928U 99025EPD 25349.39037458  .00001555  00000+0  52318-3 0  9993",
        "tle_line2": "2 37928  98.9158 224.0834 0073046  25.3937 335.0809 14.37112428812308"
      },
      "geometry": {
        "type": "Point",
        "coordinates": [
          63.533157764598634,
          59.1601555119353
        ]
      }
    },
    {
      "type": "Feature",
      "properties": {
        "norad_id": 38116,
        "name": "FENGYUN 1C DEB",
        "group": "fengyun-1c-debris",
        "lat": 12.645910618910204,
        "lon": 30.076725709119547,
        "alt_km": 857.9661712809975,
        "timestamp": "2025-12-19T10:50:01.490425+00:00",
        "meta_object_name": "FENGYUN 1C DEB",
        "meta_object_id": "1999-025EPM",
        "meta_epoch": "2025-12-13T09:07:05.482848",
        "meta_mean_motion": 14.17018726,
        "meta_eccentricity": 0.00724721,
        "meta_inclination": 98.7128,
        "meta_ra_of_asc_node": 26.1003,
        "meta_arg_of_pericenter": 144.8988,
        "meta_mean_anomaly": 233.7196,
        "meta_ephemeris_type": 0,
        "meta_classification_type": "U",
        "meta_norad_cat_id": 38116,
        "meta_element_set_no": 999,
        "meta_rev_at_epoch": 64494,
        "meta_bstar": 0.00072544359,
        "meta_mean_motion_dot": 1.454e-05,
        "meta_mean_motion_ddot": 0,
        "tle_line1": "1 38116U 99025EPM 25347.37992457  .00001454  00000+0  72544-3 0  9999",
        "tle_line2": "2 38116  98.7128  26.1003 0072472 144.8988 233.7196 14.17018726644947"
      },
      "geometry": {
        "type": "Point",
        "coordinates": [
          30.076725709119547,
          12.645910618910204
        ]
      }
    },
    {
      "type": "Feature",
      "properties": {
        "norad_id": 38121,
        "name": "FENGYUN 1C DEB",
        "group": "fengyun-1c-debris",
        "lat": 38.68113314077847,
        "lon": 137.76493168075874,
        "alt_km": 760.7926457889216,
        "timestamp": "2025-12-19T10:50:01.490436+00:00",
        "meta_object_name": "FENGYUN 1C DEB",
        "meta_object_id": "1999-025EPS",
        "meta_epoch": "2025-12-13T04:20:01.430304",
        "meta_mean_motion": 14.21784212,
        "meta_eccentricity": 0.02064826,
        "meta_inclination": 99.1148,
        "meta_ra_of_asc_node": 138.6695,
        "meta_arg_of_pericenter": 126.4735,
        "meta_mean_anomaly": 235.5664,
        "meta_ephemeris_type": 0,
        "meta_classification_type": "U",
        "meta_norad_cat_id": 38121,
        "meta_element_set_no": 999,
        "meta_rev_at_epoch": 83926,
        "meta_bstar": 0.0016630973,
        "meta_mean_motion_dot": 4.5e-05,
        "meta_mean_motion_ddot": 0,
        "tle_line1": "1 38121U 99025EPS 25347.18057211  .00004500  00000+0  16631-2 0  9993",
        "tle_line2": "2 38121  99.1148 138.6695 0206482 126.4735 235.5664 14.21784212839268"
      },
      "geometry": {
        "type": "Point",
        "coordinates": [
          137.76493168075874,
          38.68113314077847
        ]
      }
    },
    {
      "type": "Feature",
      "properties": {
        "norad_id": 38122,
        "name": "FENGYUN 1C DEB",
        "group": "fengyun-1c-debris",
        "lat": 60.06939291983054,
        "lon": -169.55492440632344,
        "alt_km": 588.7054340845589,
        "timestamp": "2025-12-19T10:50:01.490446+00:00",
        "meta_object_name": "FENGYUN 1C DEB",
        "meta_object_id": "1999-025EPT",
        "meta_epoch": "2025-12-18T10:59:07.874592",
        "meta_mean_motion": 14.42665602,
        "meta_eccentricity": 0.02280901,
        "meta_inclination": 98.317,
        "meta_ra_of_asc_node": 354.7559,
        "meta_arg_of_pericenter": 139.6251,
        "meta_mean_anomaly": 222.2123,
        "meta_ephemeris_type": 0,
        "meta_classification_type": "U",
        "meta_norad_cat_id": 38122,
        "meta_element_set_no": 999,
        "meta_rev_at_epoch": 67821,
        "meta_bstar": 0.0002815985,
        "meta_mean_motion_dot": 1.231e-05,
        "meta_mean_motion_ddot": 0,
        "tle_line1": "1 38122U 99025EPT 25352.45773003  .00001231  00000+0  28160-3 0  9993",
        "tle_line2": "2 38122  98.3170 354.7559 0228090 139.6251 222.2123 14.42665602678216"
      },
      "geometry": {
        "type": "Point",
        "coordinates": [
          -169.55492440632344,
          60.06939291983054
        ]
      }
    },
    {
      "type": "Feature",
      "properties": {
        "norad_id": 38124,
        "name": "FENGYUN 1C DEB",
        "group": "fengyun-1c-debris",
        "lat": 62.81989373258567,
        "lon": 140.01838555341646,
        "alt_km": 1363.5413698343764,
        "timestamp": "2025-12-19T10:50:01.490457+00:00",
        "meta_object_name": "FENGYUN 1C DEB",
        "meta_object_id": "1999-025EPV",
        "meta_epoch": "2025-12-13T03:48:53.053632",
        "meta_mean_motion": 13.40935403,
        "meta_eccentricity": 0.03557245,
        "meta_inclination": 97.8087,
        "meta_ra_of_asc_node": 299.6458,
        "meta_arg_of_pericenter": 305.0279,
        "meta_mean_anomaly": 51.7953,
        "meta_ephemeris_type": 0,
        "meta_classification_type": "U",
        "meta_norad_cat_id": 38124,
        "meta_element_set_no": 999,
        "meta_rev_at_epoch": 54587,
        "meta_bstar": 0.00060323956,
        "meta_mean_motion_dot": 4.51e-06,
        "meta_mean_motion_ddot": 0,
        "tle_line1": "1 38124U 99025EPV 25347.15894738  .00000451  00000+0  60324-3 0  9996",
        "tle_line2": "2 38124  97.8087 299.6458 0355724 305.0279  51.7953 13.40935403545875"
      },
      "geometry": {
        "type": "Point",
        "coordinates": [
          140.01838555341646,
          62.81989373258567
        ]
      }
    },
    {
      "type": "Feature",
      "properties": {
        "norad_id": 38130,
        "name": "FENGYUN 1C DEB",
        "group": "fengyun-1c-debris",
        "lat": -23.75428218744415,
        "lon": 48.345618649180324,
        "alt_km": 1073.9062398300548,
        "timestamp": "2025-12-19T10:50:01.490467+00:00",
        "meta_object_name": "FENGYUN 1C DEB",
        "meta_object_id": "1999-025EQB",
        "meta_epoch": "2025-11-28T09:19:02.490528",
        "meta_mean_motion": 13.7720595,
        "meta_eccentricity": 0.02085156,
        "meta_inclination": 98.6035,
        "meta_ra_of_asc_node": 25.4413,
        "meta_arg_of_pericenter": 263.5047,
        "meta_mean_anomaly": 94.2329,
        "meta_ephemeris_type": 0,
        "meta_classification_type": "U",
        "meta_norad_cat_id": 38130,
        "meta_element_set_no": 999,
        "meta_rev_at_epoch": 69085,
        "meta_bstar": 0.0016964005,
        "meta_mean_motion_dot": 1.933e-05,
        "meta_mean_motion_ddot": 0,
        "tle_line1": "1 38130U 99025EQB 25332.38822327  .00001933  00000+0  16964-2 0  9993",
        "tle_line2": "2 38130  98.6035  25.4413 0208515 263.5047  94.2329 13.77205950690851"
      },
      "geometry": {
        "type": "Point",
        "coordinates": [
          48.345618649180324,
          -23.75428218744415
        ]
      }
    },
    {
      "type": "Feature",
      "properties": {
        "norad_id": 38135,
        "name": "FENGYUN 1C DEB",
        "group": "fengyun-1c-debris",
        "lat": 64.07597091404075,
        "lon": 31.8826462562414,
        "alt_km": 645.378288814195,
        "timestamp": "2025-12-19T10:50:01.490477+00:00",
        "meta_object_name": "FENGYUN 1C DEB",
        "meta_object_id": "1999-025EQG",
        "meta_epoch": "2025-12-18T09:16:04.268928",
        "meta_mean_motion": 14.25293923,
        "meta_eccentricity": 0.02228188,
        "meta_inclination": 98.6596,
        "meta_ra_of_asc_node": 49.1015,
        "meta_arg_of_pericenter": 55.0123,
        "meta_mean_anomaly": 307.1755,
        "meta_ephemeris_type": 0,
        "meta_classification_type": "U",
        "meta_norad_cat_id": 38135,
        "meta_element_set_no": 999,
        "meta_rev_at_epoch": 61121,
        "meta_bstar": 0.00031139501,
        "meta_mean_motion_dot": 9.03e-06,
        "meta_mean_motion_ddot": 0,
        "tle_line1": "1 38135U 99025EQG 25352.38616052  .00000903  00000+0  31140-3 0  9996",
        "tle_line2": "2 38135  98.6596  49.1015 0222818  55.0123 307.1755 14.25293923611213"
      },
      "geometry": {
        "type": "Point",
        "coordinates": [
          31.8826462562414,
          64.07597091404075
        ]
      }
    }
  ]
}